[
    {
        "Altitude(m)": 607895.7833340705,
        "Argument of Periapsis(deg)": 0.0,
        "Eccentricity": 0.0,
        "Inclination(deg)": 60.0,
        "Latitude(deg)": 40.99824736077943,
        "Longitude(deg)": -104.91131720007071,
        "Mean Anomaly(deg)": 130.90910000000005,
        "RAAN(deg)": 205.0,
        "Satellite Name": "Test1 910",
        "Satellite Number": 910,
        "Semi-Major Axis(m)": 6980739.136638005,
        "Time(s)": 0
    },
    {
        "Altitude(m)": 607795.0961247697,
        "Argument of Periapsis(deg)": 0.00010418945913296404,
        "Eccentricity": 0.0,
        "Inclination(deg)": 60.0,
        "Latitude(deg)": 40.53057124025301,
        "Longitude(deg)": -104.41472465435434,
        "Mean Anomaly(deg)": 131.5292061454618,
        "RAAN(deg)": 204.99957995086024,
        "Satellite Name": "Test1 910",
        "Satellite Number": 910,
        "Semi-Major Axis(m)": 6980739.136638005,
        "Time(s)": 10
    }
]